BEIJING 1               
1 28890U 05043A   26115.91664646  .00000258  00000+0  59109-4 0  9998
2 28890  98.2822 248.8616 0015922  85.4798 274.8223 14.63499742 93004
HUANJING 1A (HJ-1A)     
1 33320U 08041A   26115.97523773  .00000864  00000+0  11012-3 0  9997
2 33320  97.6672 103.8442 0018006 313.9131  46.0596 14.83862655950662
HUANJING 1B (HJ-1B)     
1 33321U 08041B   26115.98875166  .00000920  00000+0  11767-3 0  9995
2 33321  97.6514 107.1841 0036465 357.3549   2.7467 14.83218814950671
YAOGAN-4                
1 33446U 08061A   26115.81396713  .00000984  00000+0  12724-3 0  9997
2 33446  97.9287  49.7216 0012975 238.6870 121.3074 14.83099685937900
DEIMOS-1                
1 35681U 09041A   26115.95857815  .00000828  00000+0  12965-3 0  9993
2 35681  97.7346 275.4680 0002027  46.6247 313.5131 14.75181747899180
UK-DMC 2                
1 35683U 09041C   26115.95781843  .00001106  00000+0  16799-3 0  9991
2 35683  97.8749 252.2272 0001742  87.9154 272.2255 14.75945169898866
DMC3-FM1                
1 40715U 15032A   26115.94215256  .00000496  00000+0  63099-4 0  9996
2 40715  97.6538 343.1474 0004352 213.0047 147.0898 14.85679658582151
DMC3-FM2                
1 40716U 15032B   26115.89702896 -.00000097  00000+0 -52100-5 0  9993
2 40716  97.6591 344.6414 0004808 222.3709 137.7136 14.85679889582141
DMC3-FM3                
1 40717U 15032C   26115.92011804  .00000432  00000+0  55768-4 0  9993
2 40717  97.6642 346.3829 0004115 219.1306 140.9612 14.85680320582154
