[{"OBJECT_NAME":"BEIJING 1","OBJECT_ID":"2005-043A","EPOCH":"2026-04-25T21:59:58.254144","MEAN_MOTION":14.63499742,"ECCENTRICITY":0.00159227,"INCLINATION":98.2822,"RA_OF_ASC_NODE":248.8616,"ARG_OF_PERICENTER":85.4798,"MEAN_ANOMALY":274.8223,"EPHEMERIS_TYPE":0,"CLASSIFICATION_TYPE":"U","NORAD_CAT_ID":28890,"ELEMENT_SET_NO":999,"REV_AT_EPOCH":9300,"BSTAR":5.9109464e-5,"MEAN_MOTION_DOT":2.58e-6,"MEAN_MOTION_DDOT":0},{"OBJECT_NAME":"HUANJING 1A (HJ-1A)","OBJECT_ID":"2008-041A","EPOCH":"2026-04-25T23:24:20.539872","MEAN_MOTION":14.83862655,"ECCENTRICITY":0.00180066,"INCLINATION":97.6672,"RA_OF_ASC_NODE":103.8442,"ARG_OF_PERICENTER":313.9131,"MEAN_ANOMALY":46.0596,"EPHEMERIS_TYPE":0,"CLASSIFICATION_TYPE":"U","NORAD_CAT_ID":33320,"ELEMENT_SET_NO":999,"REV_AT_EPOCH":95066,"BSTAR":0.00011011742,"MEAN_MOTION_DOT":8.64e-6,"MEAN_MOTION_DDOT":0},{"OBJECT_NAME":"HUANJING 1B (HJ-1B)","OBJECT_ID":"2008-041B","EPOCH":"2026-04-25T23:43:48.143424","MEAN_MOTION":14.83218814,"ECCENTRICITY":0.00364656,"INCLINATION":97.6514,"RA_OF_ASC_NODE":107.1841,"ARG_OF_PERICENTER":357.3549,"MEAN_ANOMALY":2.7467,"EPHEMERIS_TYPE":0,"CLASSIFICATION_TYPE":"U","NORAD_CAT_ID":33321,"ELEMENT_SET_NO":999,"REV_AT_EPOCH":95067,"BSTAR":0.00011766761,"MEAN_MOTION_DOT":9.2e-6,"MEAN_MOTION_DDOT":0},{"OBJECT_NAME":"YAOGAN-4","OBJECT_ID":"2008-061A","EPOCH":"2026-04-25T19:32:06.760032","MEAN_MOTION":14.83099685,"ECCENTRICITY":0.0012975,"INCLINATION":97.9287,"RA_OF_ASC_NODE":49.7216,"ARG_OF_PERICENTER":238.687,"MEAN_ANOMALY":121.3074,"EPHEMERIS_TYPE":0,"CLASSIFICATION_TYPE":"U","NORAD_CAT_ID":33446,"ELEMENT_SET_NO":999,"REV_AT_EPOCH":93790,"BSTAR":0.00012723948,"MEAN_MOTION_DOT":9.84e-6,"MEAN_MOTION_DDOT":0},{"OBJECT_NAME":"DEIMOS-1","OBJECT_ID":"2009-041A","EPOCH":"2026-04-25T23:00:21.152160","MEAN_MOTION":14.75181747,"ECCENTRICITY":0.00020273,"INCLINATION":97.7346,"RA_OF_ASC_NODE":275.468,"ARG_OF_PERICENTER":46.6247,"MEAN_ANOMALY":313.5131,"EPHEMERIS_TYPE":0,"CLASSIFICATION_TYPE":"U","NORAD_CAT_ID":35681,"ELEMENT_SET_NO":999,"REV_AT_EPOCH":89918,"BSTAR":0.00012965151,"MEAN_MOTION_DOT":8.28e-6,"MEAN_MOTION_DDOT":0},{"OBJECT_NAME":"UK-DMC 2","OBJECT_ID":"2009-041C","EPOCH":"2026-04-25T22:59:15.512352","MEAN_MOTION":14.75945169,"ECCENTRICITY":0.00017423,"INCLINATION":97.8749,"RA_OF_ASC_NODE":252.2272,"ARG_OF_PERICENTER":87.9154,"MEAN_ANOMALY":272.2255,"EPHEMERIS_TYPE":0,"CLASSIFICATION_TYPE":"U","NORAD_CAT_ID":35683,"ELEMENT_SET_NO":999,"REV_AT_EPOCH":89886,"BSTAR":0.0001679909,"MEAN_MOTION_DOT":1.106e-5,"MEAN_MOTION_DDOT":0},{"OBJECT_NAME":"DMC3-FM1","OBJECT_ID":"2015-032A","EPOCH":"2026-04-25T22:36:41.981184","MEAN_MOTION":14.85679658,"ECCENTRICITY":0.00043527,"INCLINATION":97.6538,"RA_OF_ASC_NODE":343.1474,"ARG_OF_PERICENTER":213.0047,"MEAN_ANOMALY":147.0898,"EPHEMERIS_TYPE":0,"CLASSIFICATION_TYPE":"U","NORAD_CAT_ID":40715,"ELEMENT_SET_NO":999,"REV_AT_EPOCH":58215,"BSTAR":6.3098669e-5,"MEAN_MOTION_DOT":4.96e-6,"MEAN_MOTION_DDOT":0},{"OBJECT_NAME":"DMC3-FM2","OBJECT_ID":"2015-032B","EPOCH":"2026-04-25T21:31:43.302144","MEAN_MOTION":14.85679889,"ECCENTRICITY":0.00048086,"INCLINATION":97.6591,"RA_OF_ASC_NODE":344.6414,"ARG_OF_PERICENTER":222.3709,"MEAN_ANOMALY":137.7136,"EPHEMERIS_TYPE":0,"CLASSIFICATION_TYPE":"U","NORAD_CAT_ID":40716,"ELEMENT_SET_NO":999,"REV_AT_EPOCH":58214,"BSTAR":-5.209996e-6,"MEAN_MOTION_DOT":-9.7e-7,"MEAN_MOTION_DDOT":0},{"OBJECT_NAME":"DMC3-FM3","OBJECT_ID":"2015-032C","EPOCH":"2026-04-25T22:04:58.198656","MEAN_MOTION":14.8568032,"ECCENTRICITY":0.00041155,"INCLINATION":97.6642,"RA_OF_ASC_NODE":346.3829,"ARG_OF_PERICENTER":219.1306,"MEAN_ANOMALY":140.9612,"EPHEMERIS_TYPE":0,"CLASSIFICATION_TYPE":"U","NORAD_CAT_ID":40717,"ELEMENT_SET_NO":999,"REV_AT_EPOCH":58215,"BSTAR":5.5767731e-5,"MEAN_MOTION_DOT":4.32e-6,"MEAN_MOTION_DDOT":0}]
